[{"OBJECT_NAME":"STARLINK-31882","OBJECT_ID":"2024-097W","EPOCH":"2026-03-09T12:50:52.612224","MEAN_MOTION":15.27575603,"ECCENTRICITY":8.526e-5,"INCLINATION":43.003,"RA_OF_ASC_NODE":268.257,"ARG_OF_PERICENTER":237.0873,"MEAN_ANOMALY":122.9896,"EPHEMERIS_TYPE":0,"CLASSIFICATION_TYPE":"U","NORAD_CAT_ID":59855,"ELEMENT_SET_NO":999,"REV_AT_EPOCH":10197,"BSTAR":-1.635505e-6,"MEAN_MOTION_DOT":-3.07e-6,"MEAN_MOTION_DDOT":0},{"OBJECT_NAME":"YAOGAN-43 01D","OBJECT_ID":"2024-148D","EPOCH":"2026-03-09T10:27:16.254720","MEAN_MOTION":15.28369377,"ECCENTRICITY":0.00025569,"INCLINATION":35.001,"RA_OF_ASC_NODE":61.7102,"ARG_OF_PERICENTER":326.2473,"MEAN_ANOMALY":33.808,"EPHEMERIS_TYPE":0,"CLASSIFICATION_TYPE":"U","NORAD_CAT_ID":60461,"ELEMENT_SET_NO":999,"REV_AT_EPOCH":8700,"BSTAR":0.00037765912,"MEAN_MOTION_DOT":0.00010676,"MEAN_MOTION_DDOT":0}]
